CZ-2C DEB               
1 67587U 26009D   26041.15040612  .00041642  00000+0  19954-2 0  9998
2 67587  97.6723 116.0060 0107078 137.8627 223.0900 15.13784651  3921
NAVSTAR 85 (USA 581)    
1 67588U 26017A   26042.55632547 -.00000027  00000+0  00000+0 0  9999
2 67588  55.0041  93.7970 0000850  64.0319 296.0411  2.00561449429090
STARLINK-36641          
1 67589U 26018A   26042.58335648  .00098365  00000+0  50978-3 0  9990
2 67589  97.2841 107.0433 0001729 119.8756 261.9522 15.80760146  3145
STARLINK-36376          
1 67590U 26018B   26042.58335648  .00158117  00000+0  81420-3 0  9990
2 67590  97.2839 107.0458 0001683 115.7743 271.2538 15.80738687  3192
STARLINK-36391          
1 67591U 26018C   26042.58335648  .00095847  00000+0  49698-3 0  9992
2 67591  97.2836 107.0468 0001745  84.1768 309.0663 15.80756583  3190
STARLINK-36603          
1 67592U 26018D   26042.58335648  .00108265  00000+0  56048-3 0  9999
2 67592  97.2839 107.0500 0001645  91.9898 305.4986 15.80756369  3156
STARLINK-36634          
1 67593U 26018E   26042.58335648  .00175275  00000+0  90115-3 0  9998
2 67593  97.2838 107.0526 0001522  86.7811 317.2555 15.80727510  3143
STARLINK-36638          
1 67594U 26018F   26042.58335648  .00159811  00000+0  82329-3 0  9995
2 67594  97.2837 107.0547 0001542  82.2785 328.0693 15.80724540  3142
STARLINK-36628          
1 67595U 26018G   26042.58335648  .00236930  00000+0  12098-2 0  9999
2 67595  97.2826 107.0561 0000996 101.4011 313.6163 15.80717766  3149
STARLINK-36629          
1 67596U 26018H   26042.58335648 -.01427501  00000+0 -82434-2 0  9990
2 67596  97.2828 107.0582 0001978  80.4682 340.3302 15.81177168  3145
STARLINK-36384          
1 67597U 26018J   26042.58335648  .00182411  00000+0  93739-3 0  9997
2 67597  97.2825 107.0609 0001638  92.8765 334.2302 15.80719308  3201
STARLINK-36358          
1 67598U 26018K   26042.58335648  .00245704  00000+0  12540-2 0  9993
2 67598  97.2827 107.0632 0001662 114.8615 316.5578 15.80705665  3193
