CCSDS_OMM_VERS = 2.0
CREATION_DATE  = 
ORIGINATOR     = 

OBJECT_NAME    = CZ-2C DEB
OBJECT_ID      = 2026-009D
CENTER_NAME    = EARTH
REF_FRAME      = TEME
TIME_SYSTEM    = UTC
MEAN_ELEMENT_THEORY = SGP/SGP4

EPOCH          = 2026-02-10T03:36:35.088768
MEAN_MOTION    = 15.13784651
ECCENTRICITY   = .01070783
INCLINATION    = 97.6723
RA_OF_ASC_NODE = 116.0060
ARG_OF_PERICENTER = 137.8627
MEAN_ANOMALY   = 223.0900

EPHEMERIS_TYPE = 0
CLASSIFICATION_TYPE = U
NORAD_CAT_ID   = 67587
ELEMENT_SET_NO = 999
REV_AT_EPOCH   = 392
BSTAR          = .19953901E-2
MEAN_MOTION_DOT = .41642E-3
MEAN_MOTION_DDOT = 0

CCSDS_OMM_VERS = 2.0
CREATION_DATE  = 
ORIGINATOR     = 

OBJECT_NAME    = NAVSTAR 85 (USA 581)
OBJECT_ID      = 2026-017A
CENTER_NAME    = EARTH
REF_FRAME      = TEME
TIME_SYSTEM    = UTC
MEAN_ELEMENT_THEORY = SGP/SGP4

EPOCH          = 2026-02-11T13:21:06.520608
MEAN_MOTION    = 2.00561449
ECCENTRICITY   = .00008503
INCLINATION    = 55.0041
RA_OF_ASC_NODE = 93.7970
ARG_OF_PERICENTER = 64.0319
MEAN_ANOMALY   = 296.0411

EPHEMERIS_TYPE = 0
CLASSIFICATION_TYPE = U
NORAD_CAT_ID   = 67588
ELEMENT_SET_NO = 999
REV_AT_EPOCH   = 42909
BSTAR          = 0
MEAN_MOTION_DOT = -.27E-6
MEAN_MOTION_DDOT = 0

CCSDS_OMM_VERS = 2.0
CREATION_DATE  = 
ORIGINATOR     = 

OBJECT_NAME    = STARLINK-36641
OBJECT_ID      = 2026-018A
CENTER_NAME    = EARTH
REF_FRAME      = TEME
TIME_SYSTEM    = UTC
MEAN_ELEMENT_THEORY = SGP/SGP4

EPOCH          = 2026-02-11T14:00:01.999872
MEAN_MOTION    = 15.80760146
ECCENTRICITY   = .00017296
INCLINATION    = 97.2841
RA_OF_ASC_NODE = 107.0433
ARG_OF_PERICENTER = 119.8756
MEAN_ANOMALY   = 261.9522

EPHEMERIS_TYPE = 0
CLASSIFICATION_TYPE = U
NORAD_CAT_ID   = 67589
ELEMENT_SET_NO = 999
REV_AT_EPOCH   = 314
BSTAR          = .50978402E-3
MEAN_MOTION_DOT = .98365E-3
MEAN_MOTION_DDOT = 0

CCSDS_OMM_VERS = 2.0
CREATION_DATE  = 
ORIGINATOR     = 

OBJECT_NAME    = STARLINK-36376
OBJECT_ID      = 2026-018B
CENTER_NAME    = EARTH
REF_FRAME      = TEME
TIME_SYSTEM    = UTC
MEAN_ELEMENT_THEORY = SGP/SGP4

EPOCH          = 2026-02-11T14:00:01.999872
MEAN_MOTION    = 15.80738687
ECCENTRICITY   = .00016835
INCLINATION    = 97.2839
RA_OF_ASC_NODE = 107.0458
ARG_OF_PERICENTER = 115.7743
MEAN_ANOMALY   = 271.2538

EPHEMERIS_TYPE = 0
CLASSIFICATION_TYPE = U
NORAD_CAT_ID   = 67590
ELEMENT_SET_NO = 999
REV_AT_EPOCH   = 319
BSTAR          = .81419505E-3
MEAN_MOTION_DOT = .158117E-2
MEAN_MOTION_DDOT = 0

CCSDS_OMM_VERS = 2.0
CREATION_DATE  = 
ORIGINATOR     = 

OBJECT_NAME    = STARLINK-36391
OBJECT_ID      = 2026-018C
CENTER_NAME    = EARTH
REF_FRAME      = TEME
TIME_SYSTEM    = UTC
MEAN_ELEMENT_THEORY = SGP/SGP4

EPOCH          = 2026-02-11T14:00:01.999872
MEAN_MOTION    = 15.80756583
ECCENTRICITY   = .00017454
INCLINATION    = 97.2836
RA_OF_ASC_NODE = 107.0468
ARG_OF_PERICENTER = 84.1768
MEAN_ANOMALY   = 309.0663

EPHEMERIS_TYPE = 0
CLASSIFICATION_TYPE = U
NORAD_CAT_ID   = 67591
ELEMENT_SET_NO = 999
REV_AT_EPOCH   = 319
BSTAR          = .49697686E-3
MEAN_MOTION_DOT = .95847E-3
MEAN_MOTION_DDOT = 0

CCSDS_OMM_VERS = 2.0
CREATION_DATE  = 
ORIGINATOR     = 

OBJECT_NAME    = STARLINK-36603
OBJECT_ID      = 2026-018D
CENTER_NAME    = EARTH
REF_FRAME      = TEME
TIME_SYSTEM    = UTC
MEAN_ELEMENT_THEORY = SGP/SGP4

EPOCH          = 2026-02-11T14:00:01.999872
MEAN_MOTION    = 15.80756369
ECCENTRICITY   = .00016453
INCLINATION    = 97.2839
RA_OF_ASC_NODE = 107.0500
ARG_OF_PERICENTER = 91.9898
MEAN_ANOMALY   = 305.4986

EPHEMERIS_TYPE = 0
CLASSIFICATION_TYPE = U
NORAD_CAT_ID   = 67592
ELEMENT_SET_NO = 999
REV_AT_EPOCH   = 315
BSTAR          = .56047959E-3
MEAN_MOTION_DOT = .108265E-2
MEAN_MOTION_DDOT = 0

CCSDS_OMM_VERS = 2.0
CREATION_DATE  = 
ORIGINATOR     = 

OBJECT_NAME    = STARLINK-36634
OBJECT_ID      = 2026-018E
CENTER_NAME    = EARTH
REF_FRAME      = TEME
TIME_SYSTEM    = UTC
MEAN_ELEMENT_THEORY = SGP/SGP4

EPOCH          = 2026-02-11T14:00:01.999872
MEAN_MOTION    = 15.80727510
ECCENTRICITY   = .00015228
INCLINATION    = 97.2838
RA_OF_ASC_NODE = 107.0526
ARG_OF_PERICENTER = 86.7811
MEAN_ANOMALY   = 317.2555

EPHEMERIS_TYPE = 0
CLASSIFICATION_TYPE = U
NORAD_CAT_ID   = 67593
ELEMENT_SET_NO = 999
REV_AT_EPOCH   = 314
BSTAR          = .9011544E-3
MEAN_MOTION_DOT = .175275E-2
MEAN_MOTION_DDOT = 0

CCSDS_OMM_VERS = 2.0
CREATION_DATE  = 
ORIGINATOR     = 

OBJECT_NAME    = STARLINK-36638
OBJECT_ID      = 2026-018F
CENTER_NAME    = EARTH
REF_FRAME      = TEME
TIME_SYSTEM    = UTC
MEAN_ELEMENT_THEORY = SGP/SGP4

EPOCH          = 2026-02-11T14:00:01.999872
MEAN_MOTION    = 15.80724540
ECCENTRICITY   = .00015428
INCLINATION    = 97.2837
RA_OF_ASC_NODE = 107.0547
ARG_OF_PERICENTER = 82.2785
MEAN_ANOMALY   = 328.0693

EPHEMERIS_TYPE = 0
CLASSIFICATION_TYPE = U
NORAD_CAT_ID   = 67594
ELEMENT_SET_NO = 999
REV_AT_EPOCH   = 314
BSTAR          = .82328789E-3
MEAN_MOTION_DOT = .159811E-2
MEAN_MOTION_DDOT = 0

CCSDS_OMM_VERS = 2.0
CREATION_DATE  = 
ORIGINATOR     = 

OBJECT_NAME    = STARLINK-36628
OBJECT_ID      = 2026-018G
CENTER_NAME    = EARTH
REF_FRAME      = TEME
TIME_SYSTEM    = UTC
MEAN_ELEMENT_THEORY = SGP/SGP4

EPOCH          = 2026-02-11T14:00:01.999872
MEAN_MOTION    = 15.80717766
ECCENTRICITY   = .00009965
INCLINATION    = 97.2826
RA_OF_ASC_NODE = 107.0561
ARG_OF_PERICENTER = 101.4011
MEAN_ANOMALY   = 313.6163

EPHEMERIS_TYPE = 0
CLASSIFICATION_TYPE = U
NORAD_CAT_ID   = 67595
ELEMENT_SET_NO = 999
REV_AT_EPOCH   = 314
BSTAR          = .12097823E-2
MEAN_MOTION_DOT = .23693E-2
MEAN_MOTION_DDOT = 0

CCSDS_OMM_VERS = 2.0
CREATION_DATE  = 
ORIGINATOR     = 

OBJECT_NAME    = STARLINK-36629
OBJECT_ID      = 2026-018H
CENTER_NAME    = EARTH
REF_FRAME      = TEME
TIME_SYSTEM    = UTC
MEAN_ELEMENT_THEORY = SGP/SGP4

EPOCH          = 2026-02-11T14:00:01.999872
MEAN_MOTION    = 15.81177168
ECCENTRICITY   = .00019783
INCLINATION    = 97.2828
RA_OF_ASC_NODE = 107.0582
ARG_OF_PERICENTER = 80.4682
MEAN_ANOMALY   = 340.3302

EPHEMERIS_TYPE = 0
CLASSIFICATION_TYPE = U
NORAD_CAT_ID   = 67596
ELEMENT_SET_NO = 999
REV_AT_EPOCH   = 314
BSTAR          = -.82433571E-2
MEAN_MOTION_DOT = -.1427501E-1
MEAN_MOTION_DDOT = 0

CCSDS_OMM_VERS = 2.0
CREATION_DATE  = 
ORIGINATOR     = 

OBJECT_NAME    = STARLINK-36384
OBJECT_ID      = 2026-018J
CENTER_NAME    = EARTH
REF_FRAME      = TEME
TIME_SYSTEM    = UTC
MEAN_ELEMENT_THEORY = SGP/SGP4

EPOCH          = 2026-02-11T14:00:01.999872
MEAN_MOTION    = 15.80719308
ECCENTRICITY   = .00016388
INCLINATION    = 97.2825
RA_OF_ASC_NODE = 107.0609
ARG_OF_PERICENTER = 92.8765
MEAN_ANOMALY   = 334.2302

EPHEMERIS_TYPE = 0
CLASSIFICATION_TYPE = U
NORAD_CAT_ID   = 67597
ELEMENT_SET_NO = 999
REV_AT_EPOCH   = 320
BSTAR          = .93738785E-3
MEAN_MOTION_DOT = .182411E-2
MEAN_MOTION_DDOT = 0

CCSDS_OMM_VERS = 2.0
CREATION_DATE  = 
ORIGINATOR     = 

OBJECT_NAME    = STARLINK-36358
OBJECT_ID      = 2026-018K
CENTER_NAME    = EARTH
REF_FRAME      = TEME
TIME_SYSTEM    = UTC
MEAN_ELEMENT_THEORY = SGP/SGP4

EPOCH          = 2026-02-11T14:00:01.999872
MEAN_MOTION    = 15.80705665
ECCENTRICITY   = .00016625
INCLINATION    = 97.2827
RA_OF_ASC_NODE = 107.0632
ARG_OF_PERICENTER = 114.8615
MEAN_ANOMALY   = 316.5578

EPHEMERIS_TYPE = 0
CLASSIFICATION_TYPE = U
NORAD_CAT_ID   = 67598
ELEMENT_SET_NO = 999
REV_AT_EPOCH   = 319
BSTAR          = .12539712E-2
MEAN_MOTION_DOT = .245704E-2
MEAN_MOTION_DDOT = 0

